{"fetched_at":"2026-07-18T06:28:07.507Z","source":"https://celestrak.org/NORAD/elements/gp.php?NAME=GLOBAL&FORMAT=JSON","constellation":"blacksky-gen2","records":[{"OBJECT_NAME":"GLOBAL-2","OBJECT_ID":"2018-099BG","EPOCH":"2026-07-17T09:12:44.553600","CLASSIFICATION_TYPE":"U","MEAN_MOTION":15.08833068,"ECCENTRICITY":0.0007287,"INCLINATION":97.3548,"RA_OF_ASC_NODE":233.6418,"ARG_OF_PERICENTER":61.1366,"MEAN_ANOMALY":299.0593,"EPHEMERIS_TYPE":0,"NORAD_CAT_ID":43812,"ELEMENT_SET_NO":999,"REV_AT_EPOCH":41646,"BSTAR":0.0001148,"MEAN_MOTION_DOT":0.00001747,"MEAN_MOTION_DDOT":0},{"OBJECT_NAME":"GLOBAL-4","OBJECT_ID":"2019-054E","EPOCH":"2026-07-17T19:50:06.916416","CLASSIFICATION_TYPE":"U","MEAN_MOTION":15.6729171,"ECCENTRICITY":0.00057823,"INCLINATION":45.0054,"RA_OF_ASC_NODE":59.2192,"ARG_OF_PERICENTER":213.2818,"MEAN_ANOMALY":146.7718,"EPHEMERIS_TYPE":0,"NORAD_CAT_ID":44499,"ELEMENT_SET_NO":999,"REV_AT_EPOCH":38516,"BSTAR":0.00036312257,"MEAN_MOTION_DOT":0.00039897,"MEAN_MOTION_DDOT":0},{"OBJECT_NAME":"GLOBAL-9","OBJECT_ID":"2021-023G","EPOCH":"2026-07-17T20:34:40.809792","CLASSIFICATION_TYPE":"U","MEAN_MOTION":15.47679945,"ECCENTRICITY":0.00038126,"INCLINATION":44.9813,"RA_OF_ASC_NODE":77.9919,"ARG_OF_PERICENTER":187.4917,"MEAN_ANOMALY":172.5917,"EPHEMERIS_TYPE":0,"NORAD_CAT_ID":47971,"ELEMENT_SET_NO":999,"REV_AT_EPOCH":29969,"BSTAR":0.00024597473,"MEAN_MOTION_DOT":0.00012657,"MEAN_MOTION_DDOT":0},{"OBJECT_NAME":"GLOBAL-14","OBJECT_ID":"2021-106A","EPOCH":"2026-07-17T22:11:25.629216","CLASSIFICATION_TYPE":"U","MEAN_MOTION":15.51917152,"ECCENTRICITY":0.00181898,"INCLINATION":42.0037,"RA_OF_ASC_NODE":108.213,"ARG_OF_PERICENTER":241.9808,"MEAN_ANOMALY":117.9196,"EPHEMERIS_TYPE":0,"NORAD_CAT_ID":49469,"ELEMENT_SET_NO":999,"REV_AT_EPOCH":26290,"BSTAR":0.00025342991,"MEAN_MOTION_DOT":0.00015419,"MEAN_MOTION_DDOT":0},{"OBJECT_NAME":"GLOBAL-12","OBJECT_ID":"2021-115BA","EPOCH":"2026-07-17T19:18:17.004672","CLASSIFICATION_TYPE":"U","MEAN_MOTION":15.55427236,"ECCENTRICITY":0.00029506,"INCLINATION":53.1935,"RA_OF_ASC_NODE":257.1125,"ARG_OF_PERICENTER":74.0317,"MEAN_ANOMALY":286.102,"EPHEMERIS_TYPE":0,"NORAD_CAT_ID":49772,"ELEMENT_SET_NO":999,"REV_AT_EPOCH":26066,"BSTAR":0.00023259971,"MEAN_MOTION_DOT":0.00015673,"MEAN_MOTION_DDOT":0},{"OBJECT_NAME":"GLOBAL-13","OBJECT_ID":"2021-115BB","EPOCH":"2026-07-17T11:47:16.393344","CLASSIFICATION_TYPE":"U","MEAN_MOTION":15.47163605,"ECCENTRICITY":0.0000385,"INCLINATION":53.1963,"RA_OF_ASC_NODE":270.4046,"ARG_OF_PERICENTER":151.9456,"MEAN_ANOMALY":208.1573,"EPHEMERIS_TYPE":0,"NORAD_CAT_ID":49773,"ELEMENT_SET_NO":999,"REV_AT_EPOCH":26045,"BSTAR":0.00021243,"MEAN_MOTION_DOT":0.0001054,"MEAN_MOTION_DDOT":0},{"OBJECT_NAME":"GLOBAL-17","OBJECT_ID":"2021-120A","EPOCH":"2026-07-17T09:03:52.363296","CLASSIFICATION_TYPE":"U","MEAN_MOTION":15.53785378,"ECCENTRICITY":0.0013426,"INCLINATION":41.9929,"RA_OF_ASC_NODE":229.1785,"ARG_OF_PERICENTER":107.8775,"MEAN_ANOMALY":252.3535,"EPHEMERIS_TYPE":0,"NORAD_CAT_ID":49949,"ELEMENT_SET_NO":999,"REV_AT_EPOCH":25959,"BSTAR":0.00022366,"MEAN_MOTION_DOT":0.00014488,"MEAN_MOTION_DDOT":0},{"OBJECT_NAME":"GLOBAL-16","OBJECT_ID":"2021-120B","EPOCH":"2026-07-17T11:56:37.683168","CLASSIFICATION_TYPE":"U","MEAN_MOTION":15.51545915,"ECCENTRICITY":0.0011433,"INCLINATION":41.9932,"RA_OF_ASC_NODE":232.7813,"ARG_OF_PERICENTER":98.4215,"MEAN_ANOMALY":261.7926,"EPHEMERIS_TYPE":0,"NORAD_CAT_ID":49950,"ELEMENT_SET_NO":999,"REV_AT_EPOCH":25955,"BSTAR":0.00021759,"MEAN_MOTION_DOT":0.00012956,"MEAN_MOTION_DDOT":0},{"OBJECT_NAME":"GLOBAL-18","OBJECT_ID":"2022-034B","EPOCH":"2026-07-17T18:02:39.513408","CLASSIFICATION_TYPE":"U","MEAN_MOTION":15.47293414,"ECCENTRICITY":0.00045653,"INCLINATION":52.9816,"RA_OF_ASC_NODE":110.446,"ARG_OF_PERICENTER":31.8814,"MEAN_ANOMALY":328.2468,"EPHEMERIS_TYPE":0,"NORAD_CAT_ID":52196,"ELEMENT_SET_NO":999,"REV_AT_EPOCH":24169,"BSTAR":0.00026089459,"MEAN_MOTION_DOT":0.00013112,"MEAN_MOTION_DDOT":0},{"OBJECT_NAME":"GLOBAL-19","OBJECT_ID":"2023-041B","EPOCH":"2026-07-17T20:55:19.597440","CLASSIFICATION_TYPE":"U","MEAN_MOTION":15.3872676,"ECCENTRICITY":0.00099572,"INCLINATION":42.0021,"RA_OF_ASC_NODE":22.8522,"ARG_OF_PERICENTER":235.1182,"MEAN_ANOMALY":124.8722,"EPHEMERIS_TYPE":0,"NORAD_CAT_ID":55982,"ELEMENT_SET_NO":999,"REV_AT_EPOCH":18665,"BSTAR":0.00021372374,"MEAN_MOTION_DOT":0.00008117,"MEAN_MOTION_DDOT":0},{"OBJECT_NAME":"GLOBAL-5","OBJECT_ID":"2023-041C","EPOCH":"2026-07-17T21:42:20.597184","CLASSIFICATION_TYPE":"U","MEAN_MOTION":15.38741423,"ECCENTRICITY":0.00089284,"INCLINATION":42.0016,"RA_OF_ASC_NODE":22.1868,"ARG_OF_PERICENTER":230.8493,"MEAN_ANOMALY":129.1554,"EPHEMERIS_TYPE":0,"NORAD_CAT_ID":55983,"ELEMENT_SET_NO":999,"REV_AT_EPOCH":18666,"BSTAR":0.00021998123,"MEAN_MOTION_DOT":0.00008365,"MEAN_MOTION_DDOT":0}]}
