GLOBAL-2                
1 43812U 18099BG  26198.38384900  .00001747  00000+0  11480-3 0  9991
2 43812  97.3548 233.6418 0007287  61.1366 299.0593 15.08833068416460
GLOBAL-4                
1 44499U 19054E   26198.82646894  .00039897  00000+0  36312-3 0  9995
2 44499  45.0054  59.2192 0005782 213.2818 146.7718 15.67291710385161
GLOBAL-9                
1 47971U 21023G   26198.85741678  .00012657  00000+0  24597-3 0  9998
2 47971  44.9813  77.9919 0003812 187.4917 172.5917 15.47679945299696
GLOBAL-14               
1 49469U 21106A   26198.92460219  .00015419  00000+0  25343-3 0  9990
2 49469  42.0037 108.2130 0018189 241.9808 117.9196 15.51917152262904
GLOBAL-12               
1 49772U 21115BA  26198.80436348  .00015673  00000+0  23260-3 0  9998
2 49772  53.1935 257.1125 0002950  74.0317 286.1020 15.55427236260667
GLOBAL-13               
1 49773U 21115BB  26198.49116196  .00010540  00000+0  21243-3 0  9997
2 49773  53.1963 270.4046 0000385 151.9456 208.1573 15.47163605260450
GLOBAL-17               
1 49949U 21120A   26198.37768939  .00014488  00000+0  22366-3 0  9995
2 49949  41.9929 229.1785 0013426 107.8775 252.3535 15.53785378259593
GLOBAL-16               
1 49950U 21120B   26198.49765837  .00012956  00000+0  21759-3 0  9997
2 49950  41.9932 232.7813 0011433  98.4215 261.7926 15.51545915259554
GLOBAL-18               
1 52196U 22034B   26198.75184622  .00013112  00000+0  26089-3 0  9990
2 52196  52.9816 110.4460 0004565  31.8814 328.2468 15.47293414241692
GLOBAL-19               
1 55982U 23041B   26198.87175460  .00008117  00000+0  21372-3 0  9997
2 55982  42.0021  22.8522 0009957 235.1182 124.8722 15.38726760186650
GLOBAL-5                
1 55983U 23041C   26198.90440506  .00008365  00000+0  21998-3 0  9997
2 55983  42.0016  22.1868 0008928 230.8493 129.1554 15.38741423186660
